[{"OBJECT_NAME":"TEVEL2-7","OBJECT_ID":"2025-052AE","EPOCH":"2026-03-09T15:52:01.887744","MEAN_MOTION":15.28414096,"ECCENTRICITY":0.00081048,"INCLINATION":97.4054,"RA_OF_ASC_NODE":324.3041,"ARG_OF_PERICENTER":124.683,"MEAN_ANOMALY":235.5175,"EPHEMERIS_TYPE":0,"CLASSIFICATION_TYPE":"U","NORAD_CAT_ID":63238,"ELEMENT_SET_NO":999,"REV_AT_EPOCH":5480,"BSTAR":0.00069668191,"MEAN_MOTION_DOT":0.00019244,"MEAN_MOTION_DDOT":0},{"OBJECT_NAME":"STARLINK-34161","OBJECT_ID":"2025-101Z","EPOCH":"2026-03-09T03:29:47.907168","MEAN_MOTION":15.27599371,"ECCENTRICITY":0.00018075,"INCLINATION":43.0052,"RA_OF_ASC_NODE":0.8898,"ARG_OF_PERICENTER":273.3372,"MEAN_ANOMALY":86.7273,"EPHEMERIS_TYPE":0,"CLASSIFICATION_TYPE":"U","NORAD_CAT_ID":64017,"ELEMENT_SET_NO":999,"REV_AT_EPOCH":4697,"BSTAR":0.0010701507,"MEAN_MOTION_DOT":0.00029321,"MEAN_MOTION_DDOT":0}]
